[{"OBJECT_NAME":"STARLINK-6338","OBJECT_ID":"2023-099AN","EPOCH":"2026-03-09T11:25:05.216448","MEAN_MOTION":15.02534317,"ECCENTRICITY":0.00012194,"INCLINATION":43.0022,"RA_OF_ASC_NODE":237.1673,"ARG_OF_PERICENTER":265.5272,"MEAN_ANOMALY":94.5431,"EPHEMERIS_TYPE":0,"CLASSIFICATION_TYPE":"U","NORAD_CAT_ID":57364,"ELEMENT_SET_NO":999,"REV_AT_EPOCH":14623,"BSTAR":-1.2382029e-5,"MEAN_MOTION_DOT":-3.71e-6,"MEAN_MOTION_DDOT":0},{"OBJECT_NAME":"COSMOS 921","OBJECT_ID":"1977-055A","EPOCH":"2026-03-09T22:48:25.254720","MEAN_MOTION":14.96601907,"ECCENTRICITY":0.00365313,"INCLINATION":75.8341,"RA_OF_ASC_NODE":6.4444,"ARG_OF_PERICENTER":239.9272,"MEAN_ANOMALY":119.8299,"EPHEMERIS_TYPE":0,"CLASSIFICATION_TYPE":"U","NORAD_CAT_ID":10095,"ELEMENT_SET_NO":999,"REV_AT_EPOCH":63955,"BSTAR":0.00011088241,"MEAN_MOTION_DOT":1.258e-5,"MEAN_MOTION_DDOT":0}]
